OBJECT_NAME,OBJECT_ID,EPOCH,MEAN_MOTION,ECCENTRICITY,INCLINATION,RA_OF_ASC_NODE,ARG_OF_PERICENTER,MEAN_ANOMALY,EPHEMERIS_TYPE,CLASSIFICATION_TYPE,NORAD_CAT_ID,ELEMENT_SET_NO,REV_AT_EPOCH,BSTAR,MEAN_MOTION_DOT,MEAN_MOTION_DDOT
GEOSCAN 3 (RS92S3),2025-155T,2026-06-11T06:17:07.880064,15.35197031,.00058315,97.4529,132.0702,179.3894,180.7358,0,U,64893,999,7994,.45598717E-3,.15519E-3,0
INNOSAT 3 (RS92S0),2025-155U,2026-06-11T05:15:32.486400,15.43407726,.00054689,97.4479,133.5737,165.8581,194.2821,0,U,64894,999,8004,.71620295E-3,.32015E-3,0
KNACKSAT-2,1998-067XZ,2026-06-11T00:10:42.393504,15.59412992,.00099437,51.6304,325.5501,187.9343,172.1494,0,U,67683,999,1931,.5674825E-3,.45581E-3,0
