GEOSCAN 3 (RS92S3)      
1 64893U 25155T   26162.26189676  .00015519  00000+0  45599-3 0  9995
2 64893  97.4529 132.0702 0005831 179.3894 180.7358 15.35197031 79947
INNOSAT 3 (RS92S0)      
1 64894U 25155U   26162.21912600  .00032015  00000+0  71620-3 0  9996
2 64894  97.4479 133.5737 0005468 165.8581 194.2821 15.43407726 80047
KNACKSAT-2              
1 67683U 98067XZ  26162.00743511  .00045581  00000+0  56748-3 0  9993
2 67683  51.6304 325.5501 0009943 187.9343 172.1494 15.59412992 19311
